GLOBALSTAR M035         
1 25851U 99037A   24199.39407861 -.00000110  00000+0 -17348-2 0  9990
2 25851  51.9959  81.5804 0013209 156.6206  14.5226 11.04531007 59262
GLOBALSTAR M032         
1 25852U 99037B   24199.54678109 -.00000060  00000+0  20056-3 0  9997
2 25852  51.9962 289.5303 0009629 322.3986  37.6140 11.19059652 97326
GLOBALSTAR M051         
1 25853U 99037C   24199.49287792 -.00000107  00000+0 -85711-3 0  9998
2 25853  51.9786 128.2951 0001770 348.6577  11.4194 11.42199449 94146
GLOBALSTAR M030         
1 25854U 99037D   24199.62645479 -.00000028  00000+0  99588-3 0  9992
2 25854  51.9902 315.3558 0004176 162.3817 197.7145 11.55098605111386
GLOBALSTAR M048         
1 25872U 99041A   24199.32083709 -.00000054  00000+0  43123-3 0  9999
2 25872  51.9383  50.7975 0013256 328.6421 202.4031 11.33847385 86998
GLOBALSTAR M026         
1 25873U 99041B   24199.48131083  .00000019  00000+0  30465-2 0  9990
2 25873  51.9967 202.8664 0001238  37.7265 123.5274 11.06834279111420
GLOBALSTAR M043         
1 25874U 99041C   24199.61724541 -.00000008  00000+0  18042-2 0  9999
2 25874  51.9386 144.4026 0012412  97.8317  72.8081 11.25681168 85194
GLOBALSTAR M028         
1 25875U 99041D   24199.42800105 -.00000089  00000+0  74727-4 0  9993
2 25875  51.9621 111.2406 0064024  64.3096 296.4358 12.50559315148299
